#aV2019  5 10  0  0  0.00000000     288 DD+AD WGS84 FIT  NGA
## 2052 432000.00000000   300.00000000 58613 0.0000000000000
+   31     1  2  3  5  6  7  8  9 10 11 12 13 14 15 16 17 18
+         19 20 21 22 23 24 25 26 27 28 29 30 31 32  0  0  0
+          0  0  0  0  0  0  0  0  0  0  0  0  0  0  0  0  0
+          0  0  0  0  0  0  0  0  0  0  0  0  0  0  0  0  0
+          0  0  0  0  0  0  0  0  0  0  0  0  0  0  0  0  0
++         2  2  2  2  2  2  2  2  2  2  2  2  2  2  2  2  2
++         2  2  2  2  2  2  2  2  2  2  2  2  2  2  0  0  0
++         0  0  0  0  0  0  0  0  0  0  0  0  0  0  0  0  0
++         0  0  0  0  0  0  0  0  0  0  0  0  0  0  0  0  0
++         0  0  0  0  0  0  0  0  0  0  0  0  0  0  0  0  0
%c cc cc ccc ccc cccc cccc cccc cccc ccccc ccccc ccccc ccccc
%c cc cc ccc ccc cccc cccc cccc cccc ccccc ccccc ccccc ccccc
%f  0.0000000  0.000000000  0.00000000000  0.000000000000000
%f  0.0000000  0.000000000  0.00000000000  0.000000000000000
%i    0    0    0    0      0      0      0      0         0
%i    0    0    0    0      0      0      0      0         0
/*      NGA, ST. LOUIS,MO.                                  
/*   EPHEMERIS COMPUTED FROM 2 DAYS OF DATA                 
/*   EPOCHA v3 SMOOTHER                                     
/*   G1762 IERS2010 SATAF SATAPC                            
*  2019  5 10  2 25  0.00000000
P  1   5322.330620  14176.171274 -22021.952763    -12.714247                    
V  1 -26982.044238   5097.798488  -2950.415353     -0.087695                    
P  2  17224.529606 -14834.096580  14213.372737   -209.364067                    
V  2  17124.399889  -2114.445665 -24145.538392     -0.092184                    
P  3  10757.178776  22461.528676  -9396.219825    188.109135                    
V  3  -9578.800884  -7381.064299 -28641.232007     -0.003573                    
P  5   6639.311600 -14862.310326  20832.855373      0.964137                    
V  5  18726.572897  19204.164038   7892.092275     -0.001067                    
P  6  25549.990907  -6831.192723   2688.280580    209.630232                    
V  6   3729.671417   1628.386640 -31808.735916     -0.099171                    
P  7  19184.472742   8620.940714  16755.010512    -21.155194                    
V  7 -20033.950959   5116.804344  20151.944459     -0.074896                    
P  8  -4867.885643  25509.265809  -4987.730377   -142.994384                    
V  8  -4512.142581   5252.584486  31255.132621     -0.014232                    
P  9  11353.386813  12288.445883  20586.431229    414.183485                    
V  9  -9165.532210  24628.687835  -9638.487051     -0.069497                    
P 10 -20187.366731  -5968.341684 -16249.819949     50.722718                    
V 10 -12249.067292 -16740.940223  21089.908882     -0.105792                    
P 11   1009.531176  18351.647749 -19778.218521   -609.939571                    
V 11 -20277.065413  13151.136087  11227.505879      0.078613                    
P 12  -8480.719628 -23014.926068 -10624.311123    243.877629                    
V 12   9212.956624   9435.501190 -28202.426200     -0.034199                    
P 13  12839.969020 -23134.295754   1912.951413    -64.328320                    
V 13   1224.606984   3458.926981  31823.037505      0.016407                    
P 14 -17162.265265  13277.847241 -14870.699136    -81.131471                    
V 14   5752.624139 -18794.494593 -23110.674168      0.015742                    
P 15   1357.269642 -25598.549519  -6379.116794   -313.879209                    
V 15   5729.741614  -6728.938995  29817.145818      0.021233                    
P 16  -6797.411887  14421.306730  20964.718004    -38.880899                    
V 16 -16594.602282 -21438.789840   9704.579720     -0.029034                    
P 17  16285.190276  -4671.165383 -20026.625627     52.228167                    
V 17  -9052.548302  24713.105898 -12951.168847      0.060656                    
P 18  -4997.938741  16368.682609 -20769.125333     51.769782                    
V 18 -24840.829523   5054.797583  10338.602460      0.033477                    
P 19  17538.437466 -12094.129092 -16214.015226   -320.865501                    
V 19  -7187.033643  18660.954947 -22026.315058      0.045475                    
P 20 -22298.748732 -12342.237283  -7846.438777    524.604933                    
V 20  -5011.092652  -9107.705961  28798.461696      0.002687                    
P 21 -22536.598331  -4615.971984  13943.338675   -195.888493                    
V 21  15397.507297  -6328.158383  24345.424357      0.074719                    
P 22   5130.881701  21133.550545 -15065.959626   -698.237271                    
V 22 -15803.261657 -11933.953191 -21706.948112     -0.064326                    
P 23   3800.746852  22010.528915  14387.701216   -186.861505                    
V 23  -8114.506507  16197.763371 -23578.395811      0.015608                    
P 24  -1833.523495 -15722.200333 -21466.195273    -65.886791                    
V 24  26316.537086  -6040.410023   2519.441657     -0.005700                    
P 25 -17632.295521 -20040.152965    445.411161   -754.638834                    
V 25   1217.541690  -2123.850359 -31787.970604     -0.039180                    
P 26 -14815.048138   6143.808399  21173.667523    197.396399                    
V 26 -17724.885646 -20297.063624  -6331.581831      0.097054                    
P 27 -12055.997105  22689.276017   5962.162375   -128.062112                    
V 27    225.526282  -8126.630526  31132.076594     -0.092617                    
P 28  19069.912822   8523.462382 -15743.565113    767.818944                    
V 28  10917.956834  18151.180905  22300.098999      0.001230                    
P 29  -6778.238746 -16878.696536  19322.038119    205.445649                    
V 29  10448.527411 -22227.510404 -15727.539293     -0.092310                    
P 30  25605.122636   1569.534809   7271.639836   -101.720397                    
V 30  -8636.337066   4382.224379  29359.302343     -0.070467                    
P 31 -25518.230277   7071.236364   4126.283464     39.276398                    
V 31  -5495.795396  -1546.368559 -30892.339497     -0.026602                    
P 32 -16748.565309   7377.843953 -19147.205202    -94.702955                    
V 32   6478.742093 -23662.492477 -14854.715085      0.170296                    
EOF
